0 FENGYUN 1C DEB
1 29733U 99025X   13281.43378873  .00000513  00000-0  97922-3 0   135
2 29733 099.2139 258.6573 0591051 313.5578 205.5300 12.89391500316720
0 FENGYUN 1C DEB
1 29733U 99025X   13282.44204183  .00000733  00000-0  13697-2 0   140
2 29733 099.2139 259.5015 0590948 311.2596 205.6532 12.89393877316851
0 FENGYUN 1C DEB
1 29733U 99025X   13285.39183927  .00000919  00000-0  17018-2 0   157
2 29733 099.2141 261.9712 0590669 304.5345 218.0887 12.89396364317230
0 FENGYUN 1C DEB
1 29733U 99025X   13286.77925009  .00000839  00000-0  15613-2 0   166
2 29733 099.2143 263.1327 0590580 301.3683 178.2114 12.89400476317410
0 FENGYUN 1C DEB
1 29733U 99025X   13288.41760826  .00000749  00000-0  14013-2 0   177
2 29733 099.2149 264.5041 0590427 297.6322 223.2033 12.89406323317622
0 FENGYUN 1C DEB
1 29733U 99025X   13289.42617659  .00000545  00000-0  10388-2 0   180
2 29733 099.2153 265.3484 0590328 295.3304 224.8368 12.89408684317756
0 FENGYUN 1C DEB
1 29733U 99025X   13290.43491848  .00000686  00000-0  12898-2 0   198
2 29733 099.2156 266.1928 0590239 293.0287 227.2900 12.89409267317888
0 FENGYUN 1C DEB
1 29733U 99025X   13292.88789819  .00001087  00000-0  20046-2 0   209
2 29733 099.2162 268.2468 0590021 287.4309 093.7366 12.89410128318205
0 FENGYUN 1C DEB
1 29733U 99025X   13293.90336509  .00001070  00000-0  19751-2 0   211
2 29733 099.2162 269.0969 0589907 285.1129 127.4145 12.89412724318334
0 FENGYUN 1C DEB
1 29733U 99025X   13294.91212492  .00000994  00000-0  18409-2 0   221
2 29733 099.2165 269.9418 0589806 282.8120 129.9603 12.89415313318465
